[{"OBJECT_NAME":"SL-16 R/B","OBJECT_ID":"1993-059B","EPOCH":"2026-03-30T08:51:15.152832","MEAN_MOTION":14.17234658,"ECCENTRICITY":0.00173274,"INCLINATION":70.9916,"RA_OF_ASC_NODE":327.5211,"ARG_OF_PERICENTER":186.4078,"MEAN_ANOMALY":173.6827,"EPHEMERIS_TYPE":0,"CLASSIFICATION_TYPE":"U","NORAD_CAT_ID":22803,"ELEMENT_SET_NO":999,"REV_AT_EPOCH":68246,"BSTAR":-6.3016062e-5,"MEAN_MOTION_DOT":-1.75e-6,"MEAN_MOTION_DDOT":0},{"OBJECT_NAME":"ARIANE 40 R/B","OBJECT_ID":"1993-061H","EPOCH":"2026-03-30T10:30:57.603744","MEAN_MOTION":14.32872007,"ECCENTRICITY":0.00100881,"INCLINATION":98.4878,"RA_OF_ASC_NODE":157.9125,"ARG_OF_PERICENTER":217.3472,"MEAN_ANOMALY":142.7011,"EPHEMERIS_TYPE":0,"CLASSIFICATION_TYPE":"U","NORAD_CAT_ID":22830,"ELEMENT_SET_NO":999,"REV_AT_EPOCH":69707,"BSTAR":0.00010847326,"MEAN_MOTION_DOT":2.53e-6,"MEAN_MOTION_DDOT":0},{"OBJECT_NAME":"COSMOS 2278","OBJECT_ID":"1994-023A","EPOCH":"2026-03-30T12:45:56.750976","MEAN_MOTION":14.14375115,"ECCENTRICITY":0.00092076,"INCLINATION":71.0513,"RA_OF_ASC_NODE":131.4947,"ARG_OF_PERICENTER":341.4616,"MEAN_ANOMALY":18.617,"EPHEMERIS_TYPE":0,"CLASSIFICATION_TYPE":"U","NORAD_CAT_ID":23087,"ELEMENT_SET_NO":999,"REV_AT_EPOCH":64775,"BSTAR":-5.1975233e-5,"MEAN_MOTION_DOT":-1.47e-6,"MEAN_MOTION_DDOT":0},{"OBJECT_NAME":"SL-16 R/B","OBJECT_ID":"1994-023B","EPOCH":"2026-03-30T13:39:22.851936","MEAN_MOTION":14.15016743,"ECCENTRICITY":0.00054919,"INCLINATION":71.0022,"RA_OF_ASC_NODE":27.0366,"ARG_OF_PERICENTER":266.5818,"MEAN_ANOMALY":93.4677,"EPHEMERIS_TYPE":0,"CLASSIFICATION_TYPE":"U","NORAD_CAT_ID":23088,"ELEMENT_SET_NO":999,"REV_AT_EPOCH":64904,"BSTAR":0.00019368138,"MEAN_MOTION_DOT":3.27e-6,"MEAN_MOTION_DDOT":0},{"OBJECT_NAME":"SL-16 R/B","OBJECT_ID":"1994-074B","EPOCH":"2026-03-30T13:49:46.789536","MEAN_MOTION":14.7943193,"ECCENTRICITY":0.00074104,"INCLINATION":97.7078,"RA_OF_ASC_NODE":119.5455,"ARG_OF_PERICENTER":143.3316,"MEAN_ANOMALY":17.5918,"EPHEMERIS_TYPE":0,"CLASSIFICATION_TYPE":"U","NORAD_CAT_ID":23343,"ELEMENT_SET_NO":999,"REV_AT_EPOCH":69033,"BSTAR":9.0329244e-5,"MEAN_MOTION_DOT":6.25e-6,"MEAN_MOTION_DDOT":0},{"OBJECT_NAME":"SL-16 R/B","OBJECT_ID":"1994-077B","EPOCH":"2026-03-30T14:42:54.249696","MEAN_MOTION":14.15569141,"ECCENTRICITY":0.00018397,"INCLINATION":70.9831,"RA_OF_ASC_NODE":308.4719,"ARG_OF_PERICENTER":195.772,"MEAN_ANOMALY":164.3345,"EPHEMERIS_TYPE":0,"CLASSIFICATION_TYPE":"U","NORAD_CAT_ID":23405,"ELEMENT_SET_NO":999,"REV_AT_EPOCH":61919,"BSTAR":-3.0288907e-5,"MEAN_MOTION_DOT":-1.07e-6,"MEAN_MOTION_DDOT":0},{"OBJECT_NAME":"ARIANE 40+ R/B","OBJECT_ID":"1995-021B","EPOCH":"2026-03-30T10:43:56.686368","MEAN_MOTION":14.39787352,"ECCENTRICITY":0.00078995,"INCLINATION":98.446,"RA_OF_ASC_NODE":160.6448,"ARG_OF_PERICENTER":83.0737,"MEAN_ANOMALY":287.7044,"EPHEMERIS_TYPE":0,"CLASSIFICATION_TYPE":"U","NORAD_CAT_ID":23561,"ELEMENT_SET_NO":999,"REV_AT_EPOCH":62223,"BSTAR":0.00012736781,"MEAN_MOTION_DOT":3.56e-6,"MEAN_MOTION_DDOT":0},{"OBJECT_NAME":"SL-16 R/B","OBJECT_ID":"1995-058B","EPOCH":"2026-03-30T13:12:40.230432","MEAN_MOTION":14.15498608,"ECCENTRICITY":0.00101616,"INCLINATION":71.0199,"RA_OF_ASC_NODE":136.4611,"ARG_OF_PERICENTER":87.2696,"MEAN_ANOMALY":272.959,"EPHEMERIS_TYPE":0,"CLASSIFICATION_TYPE":"U","NORAD_CAT_ID":23705,"ELEMENT_SET_NO":999,"REV_AT_EPOCH":57080,"BSTAR":-8.4323208e-5,"MEAN_MOTION_DOT":-2.12e-6,"MEAN_MOTION_DDOT":0},{"OBJECT_NAME":"SL-16 R/B","OBJECT_ID":"1996-051B","EPOCH":"2026-03-30T13:29:57.420096","MEAN_MOTION":14.12421709,"ECCENTRICITY":0.00133854,"INCLINATION":70.7584,"RA_OF_ASC_NODE":131.0611,"ARG_OF_PERICENTER":114.181,"MEAN_ANOMALY":246.071,"EPHEMERIS_TYPE":0,"CLASSIFICATION_TYPE":"U","NORAD_CAT_ID":24298,"ELEMENT_SET_NO":999,"REV_AT_EPOCH":52459,"BSTAR":9.9975361e-5,"MEAN_MOTION_DOT":1.35e-6,"MEAN_MOTION_DDOT":0},{"OBJECT_NAME":"ORBVIEW 2 (SEASTAR)","OBJECT_ID":"1997-037A","EPOCH":"2026-03-30T11:13:38.160192","MEAN_MOTION":14.35509582,"ECCENTRICITY":0.00023194,"INCLINATION":98.8603,"RA_OF_ASC_NODE":254.3341,"ARG_OF_PERICENTER":25.9059,"MEAN_ANOMALY":334.2241,"EPHEMERIS_TYPE":0,"CLASSIFICATION_TYPE":"U","NORAD_CAT_ID":24883,"ELEMENT_SET_NO":999,"REV_AT_EPOCH":51145,"BSTAR":0.00014184086,"MEAN_MOTION_DOT":3.61e-6,"MEAN_MOTION_DDOT":0},{"OBJECT_NAME":"SL-16 R/B","OBJECT_ID":"1998-043G","EPOCH":"2026-03-30T11:59:52.164384","MEAN_MOTION":14.26054702,"ECCENTRICITY":0.00091436,"INCLINATION":98.8289,"RA_OF_ASC_NODE":43.0154,"ARG_OF_PERICENTER":319.2841,"MEAN_ANOMALY":40.7654,"EPHEMERIS_TYPE":0,"CLASSIFICATION_TYPE":"U","NORAD_CAT_ID":25400,"ELEMENT_SET_NO":999,"REV_AT_EPOCH":44195,"BSTAR":5.7702814e-5,"MEAN_MOTION_DOT":9.2e-7,"MEAN_MOTION_DDOT":0},{"OBJECT_NAME":"SL-16 R/B","OBJECT_ID":"1998-045B","EPOCH":"2026-03-30T13:13:39.175104","MEAN_MOTION":14.1619351,"ECCENTRICITY":0.0008056,"INCLINATION":71.0097,"RA_OF_ASC_NODE":137.7055,"ARG_OF_PERICENTER":336.4069,"MEAN_ANOMALY":23.6684,"EPHEMERIS_TYPE":0,"CLASSIFICATION_TYPE":"U","NORAD_CAT_ID":25407,"ELEMENT_SET_NO":999,"REV_AT_EPOCH":43005,"BSTAR":-7.1749957e-5,"MEAN_MOTION_DOT":-1.9e-6,"MEAN_MOTION_DDOT":0},{"OBJECT_NAME":"ISS (ZARYA)","OBJECT_ID":"1998-067A","EPOCH":"2026-03-30T08:36:35.879904","MEAN_MOTION":15.486529,"ECCENTRICITY":0.00062124,"INCLINATION":51.6343,"RA_OF_ASC_NODE":330.1789,"ARG_OF_PERICENTER":250.3608,"MEAN_ANOMALY":109.671,"EPHEMERIS_TYPE":0,"CLASSIFICATION_TYPE":"U","NORAD_CAT_ID":25544,"ELEMENT_SET_NO":999,"REV_AT_EPOCH":55953,"BSTAR":0.00022375818,"MEAN_MOTION_DOT":0.00011753,"MEAN_MOTION_DDOT":0},{"OBJECT_NAME":"CZ-4B R/B","OBJECT_ID":"1999-025C","EPOCH":"2026-03-30T13:37:53.332896","MEAN_MOTION":14.18269421,"ECCENTRICITY":0.00359908,"INCLINATION":98.6585,"RA_OF_ASC_NODE":133.3511,"ARG_OF_PERICENTER":285.234,"MEAN_ANOMALY":239.145,"EPHEMERIS_TYPE":0,"CLASSIFICATION_TYPE":"U","NORAD_CAT_ID":25732,"ELEMENT_SET_NO":999,"REV_AT_EPOCH":39112,"BSTAR":5.0920376e-5,"MEAN_MOTION_DOT":6.2e-7,"MEAN_MOTION_DDOT":0},{"OBJECT_NAME":"OKEAN-O","OBJECT_ID":"1999-039A","EPOCH":"2026-03-30T14:32:11.337792","MEAN_MOTION":14.80369379,"ECCENTRICITY":8.592e-5,"INCLINATION":97.9399,"RA_OF_ASC_NODE":149.2801,"ARG_OF_PERICENTER":95.9625,"MEAN_ANOMALY":264.1685,"EPHEMERIS_TYPE":0,"CLASSIFICATION_TYPE":"U","NORAD_CAT_ID":25860,"ELEMENT_SET_NO":999,"REV_AT_EPOCH":43748,"BSTAR":0.00012351586,"MEAN_MOTION_DOT":8.9e-6,"MEAN_MOTION_DDOT":0},{"OBJECT_NAME":"SL-16 R/B","OBJECT_ID":"1999-039B","EPOCH":"2026-03-30T10:20:25.135872","MEAN_MOTION":14.81760034,"ECCENTRICITY":0.00146799,"INCLINATION":97.9921,"RA_OF_ASC_NODE":148.492,"ARG_OF_PERICENTER":184.9161,"MEAN_ANOMALY":175.191,"EPHEMERIS_TYPE":0,"CLASSIFICATION_TYPE":"U","NORAD_CAT_ID":25861,"ELEMENT_SET_NO":999,"REV_AT_EPOCH":43993,"BSTAR":0.00010048413,"MEAN_MOTION_DOT":7.4e-6,"MEAN_MOTION_DDOT":0},{"OBJECT_NAME":"DELTA 2 R/B","OBJECT_ID":"1999-041E","EPOCH":"2026-03-30T14:35:53.953440","MEAN_MOTION":14.11885669,"ECCENTRICITY":0.05026228,"INCLINATION":51.7609,"RA_OF_ASC_NODE":217.7161,"ARG_OF_PERICENTER":50.1177,"MEAN_ANOMALY":314.2846,"EPHEMERIS_TYPE":0,"CLASSIFICATION_TYPE":"U","NORAD_CAT_ID":25876,"ELEMENT_SET_NO":999,"REV_AT_EPOCH":36598,"BSTAR":0.00021470851,"MEAN_MOTION_DOT":1.091e-5,"MEAN_MOTION_DDOT":0}]
